[Satellite]
VERSION=1.1
NAME=COSMOS 2485 (747)
NICKNAME=COSMOS 2485 (747)
TLE1=1 39155U 13019A   15054.86117127  .00000060  00000-0  00000+0 0  9990
TLE2=2 39155  64.6789 212.6570 0014243 243.3879 355.4372  2.13102103 14241
